1 23816U 96015A   19289.52879483 +.00000015 +00000-0 +00000-0 0  9992
2 23816 005.2591 067.7226 0067254 297.3485 081.6923 00.98480202085966
1 23816U 96015A   19290.16153037  .00000006  00000-0  00000+0 0  9993
2 23816   5.2604  67.7197 0067249 297.3513 306.0192  0.98480396 85971
1 23816U 96015A   19290.60424508 -.00000001 +00000-0 +00000-0 0  9993
2 23816 005.2614 067.7175 0067257 297.3515 102.9786 00.98480532085973
1 23816U 96015A   19291.51522182 -.00000020 +00000-0 +00000-0 0  9992
2 23816 005.2633 067.7129 0067260 297.3492 065.9605 00.98480887085983
1 23816U 96015A   19292.50989128 -.00000045  00000-0  00000+0 0  9995
2 23816   5.2654  67.7077 0067261 297.3481  58.6146  0.98481294 86003
1 23816U 96015A   19292.61163882 -.00000048 +00000-0 +00000-0 0  9992
2 23816 005.2656 067.7072 0067261 297.3492 094.6871 00.98481330085995
1 23816U 96015A   19293.61537538 -.00000076 +00000-0 +00000-0 0  9997
2 23816 005.2677 067.7020 0067263 297.3464 090.5588 00.98481746086006
1 23816U 96015A   19294.60107640 -.00000106  00000-0  00000+0 0  9997
2 23816   5.2698  67.6967 0067267 297.3365  80.0458  0.98482182 86029
1 23816U 96015A   19295.62281071 -.00000138 +00000-0 +00000-0 0  9997
2 23816 005.2719 067.6914 0067271 297.3248 082.3112 00.98482596086021
1 23816U 96015A   19296.62653700 -.00000167  00000-0  00000+0 0  9991
2 23816   5.2740  67.6861 0067278 297.3109  78.1952  0.98482953 86043
1 23816U 96015A   19297.70193595 -.00000195 +00000-0 +00000-0 0  9994
2 23816 005.2763 067.6807 0067292 297.2919 099.4974 00.98483272086047
1 23816U 96015A   19298.70567267 -.00000216  00000-0  00000+0 0  9999
2 23816   5.2784  67.6757 0067306 297.2758  95.3901  0.98483495 86065
1 23816U 96015A   19299.70933089 -.00000231 +00000-0 +00000-0 0  9997
2 23816 005.2805 067.6707 0067322 297.2616 091.2520 00.98483580086062
1 23816U 96015A   19300.71306852 -.00000240  00000-0  00000+0 0  9992
2 23816   5.2826  67.6660 0067340 297.2484  87.1423  0.98483586 86080
1 23816U 96015A   19301.71680133 -.00000242 +00000-0 +00000-0 0  9993
2 23816 005.2847 067.6612 0067363 297.2361 083.0295 00.98483476086089
1 23816U 96015A   19302.65614049 -.00000238 +00000-0 +00000-0 0  9995
2 23816 005.2866 067.6567 0067386 297.2314 056.0785 00.98483293086083
1 23816U 96015A   19303.29379397 -.00000231  00000-0  00000+0 0  9992
2 23816   5.2880  67.6537 0067409 297.2300 282.1607  0.98483121 86105
1 23816U 96015A   19303.72423894 -.00000225 +00000-0 +00000-0 0  9996
2 23816 005.2889 067.6517 0067412 297.2288 074.7749 00.98482949086100
1 23816U 96015A   19304.79959661 -.00000205 +00000-0 +00000-0 0  9998
2 23816 005.2911 067.6467 0067445 297.2256 096.0447 00.98482519086117
1 23816U 96015A   19305.30115434 -.00000194  00000-0  00000+0 0  9994
2 23816   5.2922  67.6443 0067469 297.2273 273.8685  0.98482281 86124
1 23816U 96015A   19305.80336609 -.00000181 +00000-0 +00000-0 0  9995
2 23816 005.2932 067.6420 0067476 297.2292 091.9238 00.98482037086121
1 23816U 96015A   19306.80699738 -.00000152 +00000-0 +00000-0 0  9999
2 23816 005.2953 067.6373 0067510 297.2328 087.7523 00.98481525086132
1 23816U 96015A   19307.30862866 -.00000136  00000-0  00000+0 0  9990
2 23816   5.2964  67.6350 0067533 297.2354 265.5996  0.98481258 86147
1 23816U 96015A   19307.81075897 -.00000120 +00000-0 +00000-0 0  9990
2 23816 005.2975 067.6327 0067541 297.2442 083.6171 00.98480998086144
1 23816U 96015A   19308.84811950 -.00000085 +00000-0 +00000-0 0  9992
2 23816 005.2997 067.6279 0067571 297.2591 091.3889 00.98480481086152
1 23816U 96015A   19309.38761284 -.00000067  00000-0  00000+0 0  9995
2 23816   5.3008  67.6254 0067592 297.2651 282.6545  0.98480228 86163
1 23816U 96015A   19309.88974319 -.00000051 +00000-0 +00000-0 0  9999
2 23816 005.3019 067.6231 0067603 297.2754 100.6693 00.98480025086165
1 23816U 96015A   19310.39126286 -.00000036 +00000-0 +00000-0 0  9992
2 23816 005.3030 067.6208 0067619 297.2840 278.4685 00.98479830086162
1 23816U 96015A   19311.39499435 -.00000008  00000-0  00000+0 0  9990
2 23816   5.3052  67.6162 0067644 297.3028 274.3095  0.98479505 86183
1 23816U 96015A   19313.76121829  .00000037  00000-0  00000+0 0  9993
2 23816   5.3103  67.6059 0067699 297.3550  33.1663  0.98479158 86215
1 23816U 96015A   19313.90455573 +.00000038 +00000-0 +00000-0 0  9997
2 23816 005.3106 067.6052 0067702 297.3602 083.9793 00.98479160086203
1 23816U 96015A   19314.90828387 +.00000044 +00000-0 +00000-0 0  9992
2 23816 005.3127 067.6009 0067722 297.3811 079.8155 00.98479249086217
1 23816U 96015A   19315.83644314  .00000042  00000-0  00000+0 0  9998
2 23816   5.3147  67.5968 0067742 297.3968  48.8644  0.98479407 86234
1 23816U 96015A   19316.84399618 +.00000033 +00000-0 +00000-0 0  9995
2 23816 005.3168 067.5925 0067764 297.4134 046.0624 00.98479706086229
1 23816U 96015A   19317.84771008 +.00000017 +00000-0 +00000-0 0  9995
2 23816 005.3190 067.5881 0067782 297.4277 041.9024 00.98480077086235
1 23816U 96015A   19317.84771008  .00000017  00000-0  00000+0 0  9994
2 23816   5.3190  67.5881 0067782 297.4277  41.9024  0.98480077 86257
1 23816U 96015A   19318.85143344 -.00000005 +00000-0 +00000-0 0  9991
2 23816 005.3211 067.5836 0067800 297.4395 037.7499 00.98480507086249
1 23816U 96015A   19318.92314146 -.00000007 +00000-0 +00000-0 0  9991
2 23816 005.3212 067.5833 0067802 297.4415 063.1713 00.98480542086254
1 23816U 96015A   19319.99849983 -.00000035  00000-0  00000+0 0  9991
2 23816   5.3235  67.5784 0067822 297.4533  84.4183  0.98481040 86270
1 23816U 96015A   19320.85882596 -.00000060 +00000-0 +00000-0 0  9994
2 23816 005.3253 067.5744 0067833 297.4591 029.4348 00.98481436086262
1 23816U 96015A   19321.86248628 -.00000090 +00000-0 +00000-0 0  9991
2 23816 005.3274 067.5696 0067847 297.4657 025.2703 00.98481881086273
1 23816U 96015A   19322.57920595 -.00000112 +00000-0 +00000-0 0  9995
2 23816 005.3289 067.5662 0067861 297.4703 279.3761 00.98482178086287
1 23816U 96015A   19323.58292358 -.00000139 +00000-0 +00000-0 0  9995
2 23816 005.3310 067.5614 0067886 297.4664 275.2455 00.98482544086295
1 23816U 96015A   19324.08505425 -.00000152  00000-0  00000+0 0  9997
2 23816   5.3321  67.5590 0067898 297.4632  93.2783  0.98482698 86313
1 23816U 96015A   19324.58657419 -.00000163 +00000-0 +00000-0 0  9996
2 23816 005.3331 067.5568 0067909 297.4650 271.0896 00.98482828086307
1 23816U 96015A   19325.08879278 -.00000174 +00000-0 +00000-0 0  9993
2 23816 005.3342 067.5545 0067922 297.4604 089.1558 00.98482949086316
1 23816U 96015A   19326.11368868 -.00000191  00000-0  00000+0 0  9994
2 23816   5.3363  67.5498 0067952 297.4555  92.5368  0.98483096 86337
1 23816U 96015A   19326.27154860 -.00000193 +00000-0 +00000-0 0  9999
2 23816 005.3366 067.5492 0067955 297.4601 148.5021 00.98483126086320
1 23816U 96015A   19327.59776792 -.00000206 +00000-0 +00000-0 0  9994
2 23816 005.3394 067.5433 0067991 297.4622 258.7104 00.98483145086337
1 23816U 96015A   19328.12480694 -.00000208  00000-0  00000+0 0  9998
2 23816   5.3405  67.5411 0068002 297.4603  85.5731  0.98483095 86357
1 23816U 96015A   19328.67309196 -.00000208 +00000-0 +00000-0 0  9996
2 23816 005.3416 067.5387 0068028 297.4648 279.9621 00.98483019086340
1 23816U 96015A   19329.67682998 -.00000205 +00000-0 +00000-0 0  9998
2 23816 005.3436 067.5344 0068070 297.4642 275.8377 00.98482859086351
1 23816U 96015A   19330.13755596 -.00000202  00000-0  00000+0 0  9992
2 23816   5.3446  67.5324 0068080 297.4640  79.1875  0.98482755 86374
1 23816U 96015A   19331.68423904 -.00000183 +00000-0 +00000-0 0  9997
2 23816 005.3478 067.5258 0068145 297.4804 267.5439 00.98482314086379
1 23816U 96015A   19332.18643920 -.00000175  00000-0  00000+0 0  9995
2 23816   5.3488  67.5236 0068159 297.4872  85.5902  0.98482147 86395
1 23816U 96015A   19333.19010872 -.00000155 +00000-0 +00000-0 0  9990
2 23816 005.3509 067.5192 0068202 297.5017 081.4221 00.98481793086396
1 23816U 96015A   19334.19381691 -.00000133  00000-0  00000+0 0  9996
2 23816   5.3530  67.5149 0068243 297.5228  77.2581  0.98481383 86411
1 23816U 96015A   19334.55209545 -.00000124 +00000-0 +00000-0 0  9994
2 23816 005.3538 067.5134 0068256 297.5292 204.2772 00.98481256086400
1 23816U 96015A   19335.25117028 -.00000106 +00000-0 +00000-0 0  9996
2 23816 005.3553 067.5103 0068290 297.5447 092.1125 00.98480985086418
1 23816U 96015A   19336.23794280 -.00000081  00000-0  00000+0 0  9997
2 23816   5.3573  67.5060 0068331 297.5694  81.9390  0.98480634 86435
1 23816U 96015A   19337.25465979 -.00000054 +00000-0 +00000-0 0  9991
2 23816 005.3595 067.5017 0068374 297.5985 082.3770 00.98480325086435
1 23816U 96015A   19338.78189689 -.00000017 +00000-0 +00000-0 0  9990
2 23816 005.3627 067.4951 0068431 297.6453 263.7944 00.98479935086446
1 23816U 96015A   19339.43218979 -.00000004  00000-0  00000+0 0  9993
2 23816   5.3641  67.4926 0068442 297.6719 134.3203  0.98479804 86469
1 23816U 96015A   19339.64236552 +.00000001 +00000-0 +00000-0 0  9990
2 23816 005.3646 067.4917 0068449 297.6776 208.8297 00.98479769086453
1 23816U 96015A   19340.27128508 +.00000012 +00000-0 +00000-0 0  9994
2 23816 005.3659 067.4890 0068474 297.6983 071.7841 00.98479686086466
1 23816U 96015A   19341.48452926  .00000029  00000-0  00000+0 0  9999
2 23816   5.3685  67.4839 0068525 297.7401 141.8823  0.98479630 86481
1 23816U 96015A   19341.86462449 +.00000033 +00000-0 +00000-0 0  9998
2 23816 005.3693 067.4822 0068543 297.7472 276.6323 00.98479612086471
1 23816U 96015A   19342.22342652 +.00000035 +00000-0 +00000-0 0  9994
2 23816 005.3700 067.4807 0068558 297.7585 043.8290 00.98479622086472
1 23816U 96015A   19343.38779785 +.00000039 +00000-0 +00000-0 0  9997
2 23816 005.3725 067.4757 0068595 297.7961 096.6041 00.98479740086495
1 23816U 96015A   19344.45403497  .00000035  00000-0  00000+0 0  9995
2 23816   5.3747  67.4712 0068621 297.8317 114.5894  0.98479934 86510
1 23816U 96015A   19344.73246604 +.00000033 +00000-0 +00000-0 0  9990
2 23816 005.3753 067.4700 0068624 297.8400 213.2953 00.98479993086507
